COMMENT,ORIGINATOR,NORAD_CAT_ID,OBJECT_NAME,OBJECT_TYPE,CLASSIFICATION_TYPE,INTLDES,EPOCH,EPOCH_MICROSECONDS,MEAN_MOTION,ECCENTRICITY,INCLINATION,RA_OF_ASC_NODE,ARG_OF_PERICENTER,MEAN_ANOMALY,EPHEMERIS_TYPE,ELEMENT_SET_NO,REV_AT_EPOCH,BSTAR,MEAN_MOTION_DOT,MEAN_MOTION_DDOT,FILE,TLE_LINE0,TLE_LINE1,TLE_LINE2,OBJECT_ID,OBJECT_NUMBER,SEMIMAJOR_AXIS,PERIOD,APOGEE,PERIGEE,DECAYED,date
GENERATED VIA SPACETRACK.ORG API,18 SPCS,48897,SPACEBEE-109,PAYLOAD,U,21059U,2023/4/4 8:28,406944,15.27462855,0.0008416,97.5857,230.1215,174.9603,185.1721,0,999,9812,0.001599,0.00043141,0,3879974,0 SPACEBEE-109,1 48897U 21059U   23094.35344221  .00043141  00000-0  15990-2 0  9994,2 48897  97.5857 230.1215 0008416 174.9603 185.1721 15.27462855 98122,2021-059U,48897,6861.537,94.274,489.177,477.627,0,
GENERATED VIA SPACETRACK.ORG API,18 SPCS,48897,SPACEBEE-109,PAYLOAD,U,21059U,2023/4/4 21:03,357344,15.27502075,0.0008408,97.5861,230.6543,173.605,186.5297,0,999,9820,0.0013752,0.00037106,0,3880211,0 SPACEBEE-109,1 48897U 21059U   23094.87751571  .00037106  00000-0  13752-2 0  9999,2 48897  97.5861 230.6543 0008408 173.6050 186.5297 15.27502075 98200,2021-059U,48897,6861.419,94.272,489.054,477.515,0,
GENERATED VIA SPACETRACK.ORG API,18 SPCS,48897,SPACEBEE-109,PAYLOAD,U,21059U,2023/4/5 14:21,334560,15.27559067,0.0008362,97.5861,231.3869,171.2587,188.8799,0,999,9831,0.0014611,0.00039509,0,3880853,0 SPACEBEE-109,1 48897U 21059U   23095.59809415  .00039509  00000-0  14611-2 0  9994,2 48897  97.5861 231.3869 0008362 171.2587 188.8799 15.27559067 98314,2021-059U,48897,6861.249,94.268,488.851,477.376,0,
GENERATED VIA SPACETRACK.ORG API,18 SPCS,48897,SPACEBEE-109,PAYLOAD,U,21059U,2023/4/5 20:38,12896,15.27580255,0.0008315,97.5863,231.6534,170.5133,189.6264,0,999,9835,0.0014246,0.0003854,0,3881008,0 SPACEBEE-109,1 48897U 21059U   23095.86011589  .00038540  00000-0  14246-2 0  9999,2 48897  97.5863 231.6534 0008315 170.5133 189.6264 15.27580255 98358,2021-059U,48897,6861.185,94.267,488.755,477.345,0,
GENERATED VIA SPACETRACK.ORG API,18 SPCS,48897,SPACEBEE-109,PAYLOAD,U,21059U,2023/4/6 7:38,977248,15.27615332,0.0008299,97.5865,232.1199,168.9431,191.1992,0,999,9842,0.0013935,0.00037733,0,3881771,0 SPACEBEE-109,1 48897U 21059U   23096.31864557  .00037733  00000-0  13935-2 0  9998,2 48897  97.5865 232.1199 0008299 168.9431 191.1992 15.27615332 98425,2021-059U,48897,6861.08,94.265,488.639,477.251,0,
GENERATED VIA SPACETRACK.ORG API,18 SPCS,48897,SPACEBEE-109,PAYLOAD,U,21059U,2023/4/7 2:30,629696,15.2767432,0.0008329,97.5869,232.9195,166.1082,194.0387,0,999,9854,0.0013393,0.00036321,0,3882154,0 SPACEBEE-109,1 48897U 21059U   23097.10467164  .00036321  00000-0  13393-2 0  9999,2 48897  97.5869 232.9195 0008329 166.1082 194.0387 15.27674320 98544,2021-059U,48897,6860.904,94.261,488.483,477.054,0,
GENERATED VIA SPACETRACK.ORG API,18 SPCS,48897,SPACEBEE-109,PAYLOAD,U,21059U,2023/4/7 8:48,567936,15.27699028,0.00083,97.587,233.186,165.0449,195.1036,0,999,9858,0.0014799,0.00040192,0,3882626,0 SPACEBEE-109,1 48897U 21059U   23097.36667324  .00040192  00000-0  14799-2 0  9999,2 48897  97.5870 233.1860 0008300 165.0449 195.1036 15.27699028 98581,2021-059U,48897,6860.83,94.259,488.389,477,0,
GENERATED VIA SPACETRACK.ORG API,18 SPCS,48897,SPACEBEE-109,PAYLOAD,U,21059U,2023/4/8 8:22,462368,15.27770314,0.0008292,97.587,234.1854,161.7818,198.372,0,999,9873,0.0013111,0.00035655,0,3883335,0 SPACEBEE-109,1 48897U 21059U   23098.34914887  .00035655  00000-0  13111-2 0  9992,2 48897  97.5870 234.1854 0008292 161.7818 198.3720 15.27770314 98738,2021-059U,48897,6860.616,94.255,488.17,476.792,0,
GENERATED VIA SPACETRACK.ORG API,18 SPCS,48897,SPACEBEE-109,PAYLOAD,U,21059U,2023/4/8 8:22,462368,15.27770314,0.0008292,97.587,234.1854,161.7818,198.372,0,999,9873,0.0013111,0.00035655,0,3883527,0 SPACEBEE-109,1 48897U 21059U   23098.34914887  .00035655  00000-0  13111-2 0  9992,2 48897  97.5870 234.1854 0008292 161.7818 198.3720 15.27770314 98738,2021-059U,48897,6860.616,94.255,488.17,476.792,0,
GENERATED VIA SPACETRACK.ORG API,18 SPCS,48897,SPACEBEE-109,PAYLOAD,U,21059U,2023/4/9 7:57,482624,15.27840348,0.0008255,97.5873,235.1852,158.9805,201.1775,0,999,9888,0.0013427,0.00036598,0,3884332,0 SPACEBEE-109,1 48897U 21059U   23099.33157966  .00036598  00000-0  13427-2 0  9996,2 48897  97.5873 235.1852 0008255 158.9805 201.1775 15.27840348 98887,2021-059U,48897,6860.407,94.251,487.935,476.608,0,
GENERATED VIA SPACETRACK.ORG API,18 SPCS,48897,SPACEBEE-109,PAYLOAD,U,21059U,2023/4/9 18:57,801952,15.27871763,0.0008271,97.5875,235.6517,157.2199,202.9409,0,999,9895,0.0012958,0.00035345,0,3884445,0 SPACEBEE-109,1 48897U 21059U   23099.79003243  .00035345  00000-0  12958-2 0  9991,2 48897  97.5875 235.6517 0008271 157.2199 202.9409 15.27871763 98954,2021-059U,48897,6860.313,94.249,487.852,476.503,0,
GENERATED VIA SPACETRACK.ORG API,18 SPCS,48897,SPACEBEE-109,PAYLOAD,U,21059U,2023/4/9 18:57,801952,15.27871763,0.0008271,97.5875,235.6517,157.2199,202.9409,0,999,9895,0.0012958,0.00035345,0,3884641,0 SPACEBEE-109,1 48897U 21059U   23099.79003243  .00035345  00000-0  12958-2 0  9991,2 48897  97.5875 235.6517 0008271 157.2199 202.9409 15.27871763 98954,2021-059U,48897,6860.313,94.249,487.852,476.503,0,
GENERATED VIA SPACETRACK.ORG API,18 SPCS,48897,SPACEBEE-109,PAYLOAD,U,21059U,2023/4/10 9:06,980256,15.27919386,0.0008312,97.5875,236.252,155.3837,204.78,0,999,9904,0.001436,0.00039255,0,3885195,0 SPACEBEE-109,1 48897U 21059U   23100.37945579  .00039255  00000-0  14360-2 0  9998,2 48897  97.5875 236.2520 0008312 155.3837 204.7800 15.27919386 99049,2021-059U,48897,6860.17,94.246,487.737,476.333,0,
GENERATED VIA SPACETRACK.ORG API,18 SPCS,48897,SPACEBEE-109,PAYLOAD,U,21059U,2023/4/11 2:23,968640,15.27975748,0.0008279,97.5876,236.9856,152.7551,207.4124,0,999,9915,0.0014204,0.00038892,0,3885442,0 SPACEBEE-109,1 48897U 21059U   23101.09983760  .00038892  00000-0  14204-2 0  9995,2 48897  97.5876 236.9856 0008279 152.7551 207.4124 15.27975748 99150,2021-059U,48897,6860.001,94.242,487.546,476.187,0,
GENERATED VIA SPACETRACK.ORG API,18 SPCS,48897,SPACEBEE-109,PAYLOAD,U,21059U,2023/4/11 8:40,479744,15.27993775,0.0008274,97.5878,237.2521,152.1371,208.0312,0,999,9919,0.001262,0.00034545,0,3885783,0 SPACEBEE-109,1 48897U 21059U   23101.36178796  .00034545  00000-0  12620-2 0  9991,2 48897  97.5878 237.2521 0008274 152.1371 208.0312 15.27993775 99194,2021-059U,48897,6859.947,94.241,487.488,476.136,0,
GENERATED VIA SPACETRACK.ORG API,18 SPCS,48897,SPACEBEE-109,PAYLOAD,U,21059U,2023/4/11 21:15,602528,15.28034264,0.0008251,97.5876,237.7855,150.3863,209.7845,0,999,9927,0.0012352,0.00033848,0,3885919,0 SPACEBEE-109,1 48897U 21059U   23101.88567827  .00033848  00000-0  12352-2 0  9992,2 48897  97.5876 237.7855 0008251 150.3863 209.7845 15.28034264 99276,2021-059U,48897,6859.826,94.239,487.351,476.031,0,
GENERATED VIA SPACETRACK.ORG API,18 SPCS,48897,SPACEBEE-109,PAYLOAD,U,21059U,2023/4/12 8:15,757728,15.2806846,0.0008197,97.5874,238.2522,149.0857,211.0866,0,999,9934,0.0012585,0.00034527,0,3886226,0 SPACEBEE-109,1 48897U 21059U   23102.34407127  .00034527  00000-0  12585-2 0  9993,2 48897  97.5874 238.2522 0008197 149.0857 211.0866 15.28068460 99340,2021-059U,48897,6859.724,94.237,487.212,475.966,0,
GENERATED VIA SPACETRACK.ORG API,18 SPCS,48897,SPACEBEE-109,PAYLOAD,U,21059U,2023/4/12 8:15,757728,15.2806846,0.0008197,97.5874,238.2522,149.0857,211.0866,0,999,9934,0.0012585,0.00034527,0,3886349,0 SPACEBEE-109,1 48897U 21059U   23102.34407127  .00034527  00000-0  12585-2 0  9993,2 48897  97.5874 238.2522 0008197 149.0857 211.0866 15.28068460 99340,2021-059U,48897,6859.724,94.237,487.212,475.966,0,
GENERATED VIA SPACETRACK.ORG API,18 SPCS,48897,SPACEBEE-109,PAYLOAD,U,21059U,2023/4/13 7:49,904928,15.28147079,0.0008091,97.5873,239.2526,146.0136,214.1623,0,999,9949,0.0014246,0.00039211,0,3886564,0 SPACEBEE-109,1 48897U 21059U   23103.32630677  .00039211  00000-0  14246-2 0  9991,2 48897  97.5873 239.2526 0008091 146.0136 214.1623 15.28147079 99499,2021-059U,48897,6859.489,94.232,486.904,475.804,0,
GENERATED VIA SPACETRACK.ORG API,18 SPCS,48897,SPACEBEE-109,PAYLOAD,U,21059U,2023/4/13 7:49,904928,15.28147079,0.0008091,97.5873,239.2526,146.0136,214.1623,0,999,9949,0.0014246,0.00039211,0,3886712,0 SPACEBEE-109,1 48897U 21059U   23103.32630677  .00039211  00000-0  14246-2 0  9991,2 48897  97.5873 239.2526 0008091 146.0136 214.1623 15.28147079 99499,2021-059U,48897,6859.489,94.232,486.904,475.804,0,
GENERATED VIA SPACETRACK.ORG API,18 SPCS,48897,SPACEBEE-109,PAYLOAD,U,21059U,2023/4/14 8:58,811008,15.28237815,0.0008084,97.5874,240.3199,141.8327,218.3486,0,999,9965,0.0015689,0.00043334,0,3887333,0 SPACEBEE-109,1 48897U 21059U   23104.37396772  .00043334  00000-0  15689-2 0  9995,2 48897  97.5874 240.3199 0008084 141.8327 218.3486 15.28237815 99655,2021-059U,48897,6859.217,94.226,486.627,475.537,0,
GENERATED VIA SPACETRACK.ORG API,18 SPCS,48897,SPACEBEE-109,PAYLOAD,U,21059U,2023/4/15 8:32,266720,15.2832927,0.0008013,97.587,241.32,138.6316,221.5531,0,999,9980,0.0016812,0.0004659,0,3887974,0 SPACEBEE-109,1 48897U 21059U   23105.35609105  .00046590  00000-0  16812-2 0  9997,2 48897  97.5870 241.3200 0008013 138.6316 221.5531 15.28329270 99800,2021-059U,48897,6858.943,94.221,486.305,475.312,0,
GENERATED VIA SPACETRACK.ORG API,18 SPCS,48897,SPACEBEE-109,PAYLOAD,U,21059U,2023/4/15 21:07,346368,15.28381614,0.0007952,97.5873,241.8534,137.1903,222.9956,0,999,9988,0.0017333,0.00048122,0,3888049,0 SPACEBEE-109,1 48897U 21059U   23105.87986512  .00048122  00000-0  17333-2 0  9996,2 48897  97.5873 241.8534 0007952 137.1903 222.9956 15.28381614 99889,2021-059U,48897,6858.787,94.217,486.106,475.198,0,
